ONEWEB-0616             
1 55157U 23004T   23296.79126518  .00000067  00000+0  13945-3 0  9990
2 55157  88.1154 197.7979 0002672  52.9905 307.1471 13.17647846 40305
ONEWEB-0617             
1 55158U 23004U   23297.15781651  .00000735  00000+0  20370-2 0  9998
2 55158  87.9001 213.2131 0001785  93.1496 266.9836 13.11414473 39121
ONEWEB-0618             
1 55159U 23004V   23297.19783400  .00000259  00000+0  99245-4 0  9997
2 55159  86.9148 177.2847 0012876 341.2209  18.8506 14.26669520 41558
ONEWEB-0619             
1 55160U 23004W   23297.20681450  .00000039  00000+0  66106-4 0  9999
2 55160  87.9253 198.0177 0002527  76.9933 283.1481 13.17647209 40257
ONEWEB-0620             
1 55161U 23004X   23297.15294319  .00000616  00000+0  17011-2 0  9998
2 55161  87.9010 213.2165 0001530  93.3108 266.8195 13.11420092 39088
ONEWEB-0621             
1 55162U 23004Y   23297.17890610 -.00000423  00000+0 -12305-2 0  9996
2 55162  87.8991 213.1964 0002287  80.4295 279.7091 13.11414113 39092
ONEWEB-0622             
1 55163U 23004Z   23296.80388962 -.00000635  00000+0 -18270-2 0  9990
2 55163  87.8999 213.2809 0001904 106.6833 253.4504 13.11418517 39005
ONEWEB-0623             
1 55164U 23004AA  23296.51703985  .00000034  00000+0  53849-4 0  9999
2 55164  87.9235 198.2182 0002106 101.1471 258.9897 13.17645062 40155
